{"type": "FeatureCollection", "features": [ {"type": "Feature", "properties": {"norad_id": 35744, "name": "IRIDIUM 33 DEB", "group": "iridium-33-debris", "lat": 27.391382802505674, "lon": 147.66913387226126, "alt_km": 653.9159210023145, "timestamp": "2025-12-03T13:52:09.951825+00:00", "meta": {"OBJECT_NAME": "IRIDIUM 33 DEB", "OBJECT_ID": "1997-051RX", "EPOCH": "2025-12-02T17:34:56.859456", "MEAN_MOTION": 14.70764219, "ECCENTRICITY": 0.0019253, "INCLINATION": 86.3279, "RA_OF_ASC_NODE": 329.9579, "ARG_OF_PERICENTER": 229.793, "MEAN_ANOMALY": 130.1601, "EPHEMERIS_TYPE": 0, "CLASSIFICATION_TYPE": "U", "NORAD_CAT_ID": 35744, "ELEMENT_SET_NO": 999, "REV_AT_EPOCH": 87184, "BSTAR": 0.001557291, "MEAN_MOTION_DOT": 9.554e-05, "MEAN_MOTION_DDOT": 0}, "tle": {"line1": "1 35744U 97051RX  25336.73260254  .00009554  00000+0  15573-2 0  9998", "line2": "2 35744  86.3279 329.9579 0019253 229.7930 130.1601 14.70764219871847"}}, "geometry": {"type": "Point", "coordinates": [147.66913387226126, 27.391382802505674]}}, {"type": "Feature", "properties": {"norad_id": 35797, "name": "IRIDIUM 33 DEB", "group": "iridium-33-debris", "lat": -36.36454719253109, "lon": 156.88681730746598, "alt_km": 621.7612985049063, "timestamp": "2025-12-03T13:52:09.951836+00:00", "meta": {"OBJECT_NAME": "IRIDIUM 33 DEB", "OBJECT_ID": "1997-051SF", "EPOCH": "2025-12-03T06:24:58.106016", "MEAN_MOTION": 14.82331102, "ECCENTRICITY": 0.00116839, "INCLINATION": 86.3357, "RA_OF_ASC_NODE": 334.3248, "ARG_OF_PERICENTER": 181.5296, "MEAN_ANOMALY": 178.5893, "EPHEMERIS_TYPE": 0, "CLASSIFICATION_TYPE": "U", "NORAD_CAT_ID": 35797, "ELEMENT_SET_NO": 999, "REV_AT_EPOCH": 87200, "BSTAR": 0.0022862772, "MEAN_MOTION_DOT": 0.00018353, "MEAN_MOTION_DDOT": 0}, "tle": {"line1": "1 35797U 97051SF  25337.26733919  .00018353  00000+0  22863-2 0  9995", "line2": "2 35797  86.3357 334.3248 0011683 181.5296 178.5893 14.82331102872006"}}, "geometry": {"type": "Point", "coordinates": [156.88681730746598, -36.36454719253109]}}, {"type": "Feature", "properties": {"norad_id": 35806, "name": "IRIDIUM 33 DEB", "group": "iridium-33-debris", "lat": -84.10310446372715, "lon": -13.572378233387951, "alt_km": 721.052842347116, "timestamp": "2025-12-03T13:52:09.951846+00:00", "meta": {"OBJECT_NAME": "IRIDIUM 33 DEB", "OBJECT_ID": "1997-051SQ", "EPOCH": "2025-11-21T22:04:29.472384", "MEAN_MOTION": 14.57052239, "ECCENTRICITY": 0.00159672, "INCLINATION": 86.3448, "RA_OF_ASC_NODE": 29.7928, "ARG_OF_PERICENTER": 137.8294, "MEAN_ANOMALY": 222.4146, "EPHEMERIS_TYPE": 0, "CLASSIFICATION_TYPE": "U", "NORAD_CAT_ID": 35806, "ELEMENT_SET_NO": 999, "REV_AT_EPOCH": 86021, "BSTAR": 0.0011489261, "MEAN_MOTION_DOT": 5.199e-05, "MEAN_MOTION_DDOT": 0}, "tle": {"line1": "1 35806U 97051SQ  25325.91978556  .00005199  00000+0  11489-2 0  9999", "line2": "2 35806  86.3448  29.7928 0015967 137.8294 222.4146 14.57052239860212"}}, "geometry": {"type": "Point", "coordinates": [-13.572378233387951, -84.10310446372715]}}, {"type": "Feature", "properties": {"norad_id": 35809, "name": "IRIDIUM 33 DEB", "group": "iridium-33-debris", "lat": 37.698057576491394, "lon": -17.63449896288025, "alt_km": 644.1844080002074, "timestamp": "2025-12-03T13:52:09.951856+00:00", "meta": {"OBJECT_NAME": "IRIDIUM 33 DEB", "OBJECT_ID": "1997-051ST", "EPOCH": "2025-12-01T17:44:51.390816", "MEAN_MOTION": 14.75313912, "ECCENTRICITY": 0.00099663, "INCLINATION": 86.3281, "RA_OF_ASC_NODE": 340.3571, "ARG_OF_PERICENTER": 290.7283, "MEAN_ANOMALY": 69.2867, "EPHEMERIS_TYPE": 0, "CLASSIFICATION_TYPE": "U", "NORAD_CAT_ID": 35809, "ELEMENT_SET_NO": 999, "REV_AT_EPOCH": 86645, "BSTAR": 0.0015973304, "MEAN_MOTION_DOT": 0.00010859, "MEAN_MOTION_DDOT": 0}, "tle": {"line1": "1 35809U 97051ST  25335.73948369  .00010859  00000+0  15973-2 0  9993", "line2": "2 35809  86.3281 340.3571 0009966 290.7283  69.2867 14.75313912866452"}}, "geometry": {"type": "Point", "coordinates": [-17.63449896288025, 37.698057576491394]}}, {"type": "Feature", "properties": {"norad_id": 35846, "name": "IRIDIUM 33 DEB", "group": "iridium-33-debris", "lat": 12.434421086953567, "lon": -118.05202678713829, "alt_km": 740.1145998818756, "timestamp": "2025-12-03T13:52:09.951867+00:00", "meta": {"OBJECT_NAME": "IRIDIUM 33 DEB", "OBJECT_ID": "1997-051SW", "EPOCH": "2025-11-15T14:04:07.017312", "MEAN_MOTION": 14.42992821, "ECCENTRICITY": 0.00163082, "INCLINATION": 86.3745, "RA_OF_ASC_NODE": 70.4244, "ARG_OF_PERICENTER": 263.1259, "MEAN_ANOMALY": 96.8086, "EPHEMERIS_TYPE": 0, "CLASSIFICATION_TYPE": "U", "NORAD_CAT_ID": 35846, "ELEMENT_SET_NO": 999, "REV_AT_EPOCH": 70937, "BSTAR": 0.0011049939, "MEAN_MOTION_DOT": 3.722e-05, "MEAN_MOTION_DDOT": 0}, "tle": {"line1": "1 35846U 97051SW  25319.58619233  .00003722  00000+0  11050-2 0  9997", "line2": "2 35846  86.3745  70.4244 0016308 263.1259  96.8086 14.42992821709373"}}, "geometry": {"type": "Point", "coordinates": [-118.05202678713829, 12.434421086953567]}}, {"type": "Feature", "properties": {"norad_id": 35848, "name": "IRIDIUM 33 DEB", "group": "iridium-33-debris", "lat": -73.3726048472275, "lon": -147.5588407409894, "alt_km": 637.6802091091504, "timestamp": "2025-12-03T13:52:09.951877+00:00", "meta": {"OBJECT_NAME": "IRIDIUM 33 DEB", "OBJECT_ID": "1997-051SY", "EPOCH": "2025-12-01T10:21:45.439488", "MEAN_MOTION": 14.7824162, "ECCENTRICITY": 0.00067103, "INCLINATION": 86.3925, "RA_OF_ASC_NODE": 21.2088, "ARG_OF_PERICENTER": 240.9704, "MEAN_ANOMALY": 119.0844, "EPHEMERIS_TYPE": 0, "CLASSIFICATION_TYPE": "U", "NORAD_CAT_ID": 35848, "ELEMENT_SET_NO": 999, "REV_AT_EPOCH": 66523, "BSTAR": 0.0018930249, "MEAN_MOTION_DOT": 0.00013775, "MEAN_MOTION_DDOT": 0}, "tle": {"line1": "1 35848U 97051SY  25335.43177592  .00013775  00000+0  18930-2 0  9991", "line2": "2 35848  86.3925  21.2088 0006710 240.9704 119.0844 14.78241620665238"}}, "geometry": {"type": "Point", "coordinates": [-147.5588407409894, -73.3726048472275]}}, {"type": "Feature", "properties": {"norad_id": 35850, "name": "IRIDIUM 33 DEB", "group": "iridium-33-debris", "lat": -33.045785968120065, "lon": 170.79439529525584, "alt_km": 634.8946676217738, "timestamp": "2025-12-03T13:52:09.951887+00:00", "meta": {"OBJECT_NAME": "IRIDIUM 33 DEB", "OBJECT_ID": "1997-051TA", "EPOCH": "2025-12-02T07:40:10.229376", "MEAN_MOTION": 14.7843662, "ECCENTRICITY": 0.0007989, "INCLINATION": 86.3497, "RA_OF_ASC_NODE": 348.9861, "ARG_OF_PERICENTER": 227.4621, "MEAN_ANOMALY": 132.5925, "EPHEMERIS_TYPE": 0, "CLASSIFICATION_TYPE": "U", "NORAD_CAT_ID": 35850, "ELEMENT_SET_NO": 999, "REV_AT_EPOCH": 71203, "BSTAR": 0.0019125, "MEAN_MOTION_DOT": 0.00013983, "MEAN_MOTION_DDOT": 0}, "tle": {"line1": "1 35850U 97051TA  25336.31956284  .00013983  00000+0  19125-2 0  9993", "line2": "2 35850  86.3497 348.9861 0007989 227.4621 132.5925 14.78436620712037"}}, "geometry": {"type": "Point", "coordinates": [170.79439529525584, -33.045785968120065]}}, {"type": "Feature", "properties": {"norad_id": 35915, "name": "IRIDIUM 33 DEB", "group": "iridium-33-debris", "lat": 86.3173641909555, "lon": 83.80388307043964, "alt_km": 625.5559031881503, "timestamp": "2025-12-03T13:52:09.951898+00:00", "meta": {"OBJECT_NAME": "IRIDIUM 33 DEB", "OBJECT_ID": "1997-051TY", "EPOCH": "2025-12-01T19:16:49.071072", "MEAN_MOTION": 14.80276921, "ECCENTRICITY": 0.00096955, "INCLINATION": 86.3446, "RA_OF_ASC_NODE": 347.9542, "ARG_OF_PERICENTER": 230.6927, "MEAN_ANOMALY": 129.3435, "EPHEMERIS_TYPE": 0, "CLASSIFICATION_TYPE": "U", "NORAD_CAT_ID": 35915, "ELEMENT_SET_NO": 999, "REV_AT_EPOCH": 7924, "BSTAR": 0.0016581633, "MEAN_MOTION_DOT": 0.00012667, "MEAN_MOTION_DDOT": 0}, "tle": {"line1": "1 35915U 97051TY  25335.80334573  .00012667  00000+0  16582-2 0  9991", "line2": "2 35915  86.3446 347.9542 0009695 230.6927 129.3435 14.80276921 79247"}}, "geometry": {"type": "Point", "coordinates": [83.80388307043964, 86.3173641909555]}}, {"type": "Feature", "properties": {"norad_id": 35918, "name": "IRIDIUM 33 DEB", "group": "iridium-33-debris", "lat": 47.337366543422945, "lon": -104.17037013186304, "alt_km": 710.6591795644918, "timestamp": "2025-12-03T13:52:09.951908+00:00", "meta": {"OBJECT_NAME": "IRIDIUM 33 DEB", "OBJECT_ID": "1997-051UB", "EPOCH": "2025-11-30T01:41:55.281408", "MEAN_MOTION": 14.51050885, "ECCENTRICITY": 0.00264066, "INCLINATION": 86.4001, "RA_OF_ASC_NODE": 81.2516, "ARG_OF_PERICENTER": 211.3482, "MEAN_ANOMALY": 332.4953, "EPHEMERIS_TYPE": 0, "CLASSIFICATION_TYPE": "U", "NORAD_CAT_ID": 35918, "ELEMENT_SET_NO": 999, "REV_AT_EPOCH": 85023, "BSTAR": 0.0014523463, "MEAN_MOTION_DOT": 5.795e-05, "MEAN_MOTION_DDOT": 0}, "tle": {"line1": "1 35918U 97051UB  25334.07077872  .00005795  00000+0  14523-2 0  9995", "line2": "2 35918  86.4001  81.2516 0026406 211.3482 332.4953 14.51050885850233"}}, "geometry": {"type": "Point", "coordinates": [-104.17037013186304, 47.337366543422945]}}, {"type": "Feature", "properties": {"norad_id": 35929, "name": "IRIDIUM 33 DEB", "group": "iridium-33-debris", "lat": 11.894715225382905, "lon": -42.25257597848408, "alt_km": 555.0836847887203, "timestamp": "2025-12-03T13:52:09.951919+00:00", "meta": {"OBJECT_NAME": "IRIDIUM 33 DEB", "OBJECT_ID": "1997-051UN", "EPOCH": "2025-12-02T05:49:26.497920", "MEAN_MOTION": 15.01302222, "ECCENTRICITY": 0.0019551, "INCLINATION": 86.3366, "RA_OF_ASC_NODE": 317.6054, "ARG_OF_PERICENTER": 65.7136, "MEAN_ANOMALY": 294.6136, "EPHEMERIS_TYPE": 0, "CLASSIFICATION_TYPE": "U", "NORAD_CAT_ID": 35929, "ELEMENT_SET_NO": 999, "REV_AT_EPOCH": 87622, "BSTAR": 0.0029859, "MEAN_MOTION_DOT": 0.00038744, "MEAN_MOTION_DDOT": 0}, "tle": {"line1": "1 35929U 97051UN  25336.24266780  .00038744  00000+0  29859-2 0  9994", "line2": "2 35929  86.3366 317.6054 0019551  65.7136 294.6136 15.01302222876221"}}, "geometry": {"type": "Point", "coordinates": [-42.25257597848408, 11.894715225382905]}}]}